[{"OBJECT_NAME":"SKYSAT-A","OBJECT_ID":"2013-066C","EPOCH":"2026-03-09T23:11:31.147872","MEAN_MOTION":15.12354605,"ECCENTRICITY":0.00202509,"INCLINATION":97.395,"RA_OF_ASC_NODE":121.5014,"ARG_OF_PERICENTER":299.3966,"MEAN_ANOMALY":60.5243,"EPHEMERIS_TYPE":0,"CLASSIFICATION_TYPE":"U","NORAD_CAT_ID":39418,"ELEMENT_SET_NO":999,"REV_AT_EPOCH":67348,"BSTAR":0.0002547658,"MEAN_MOTION_DOT":4.374e-5,"MEAN_MOTION_DDOT":0},{"OBJECT_NAME":"STARLINK-6259","OBJECT_ID":"2023-088AT","EPOCH":"2026-03-09T22:00:01.999584","MEAN_MOTION":15.08410027,"ECCENTRICITY":0.00011886,"INCLINATION":43.0008,"RA_OF_ASC_NODE":92.9306,"ARG_OF_PERICENTER":317.4913,"MEAN_ANOMALY":175.4469,"EPHEMERIS_TYPE":0,"CLASSIFICATION_TYPE":"U","NORAD_CAT_ID":57089,"ELEMENT_SET_NO":999,"REV_AT_EPOCH":578,"BSTAR":0.0035208814,"MEAN_MOTION_DOT":0.0005594,"MEAN_MOTION_DDOT":0}]
